$$SOE
2460147.500000000, A.D. 2023-Jul-22 00:00:00.0000, -2.169047496640927E+08, -3.183646974576223E+08, 2.563669674269812E+07,
2460154.500000000, A.D. 2023-Jul-29 00:00:00.0000, -2.065739391241330E+08, -3.220972662041056E+08, 2.775122347179765E+07,
2460161.500000000, A.D. 2023-Aug-05 00:00:00.0000, -1.960656275384678E+08, -3.255529415460805E+08, 2.984188903005837E+07,
2460168.500000000, A.D. 2023-Aug-12 00:00:00.0000, -1.853855840707773E+08, -3.287233283271910E+08, 3.190639874219552E+07,
2460175.500000000, A.D. 2023-Aug-19 00:00:00.0000, -1.745399809155670E+08, -3.315999935375161E+08, 3.394239429935710E+07,
2460182.500000000, A.D. 2023-Aug-26 00:00:00.0000, -1.635354123223708E+08, -3.341744805353584E+08, 3.594745360991320E+07,
2460189.500000000, A.D. 2023-Sep-02 00:00:00.0000, -1.523789139080833E+08, -3.364383251391501E+08, 3.791909092576383E+07,
2460196.500000000, A.D. 2023-Sep-09 00:00:00.0000, -1.410779821168610E+08, -3.383830737651212E+08, 3.985475727591044E+07,
2460203.500000000, A.D. 2023-Sep-16 00:00:00.0000, -1.296405935363802E+08, -3.400003038044162E+08, 4.175184122865468E+07,
2460210.500000000, A.D. 2023-Sep-23 00:00:00.0000, -1.180752235100593E+08, -3.412816460883793E+08, 4.360767001215817E+07,
2460217.500000000, A.D. 2023-Sep-30 00:00:00.0000, -1.063908642177544E+08, -3.422188083843905E+08, 4.541951116911334E+07,
2460224.500000000, A.D. 2023-Oct-07 00:00:00.0000, -9.459704438598733E+07, -3.428036005926229E+08, 4.718457496668757E+07,
2460231.500000000, A.D. 2023-Oct-14 00:00:00.0000, -8.270384936719577E+07, -3.430279650779452E+08, 4.890001724751370E+07,
2460238.500000000, A.D. 2023-Oct-21 00:00:00.0000, -7.072193811122106E+07, -3.428840106477143E+08, 5.056294261138436E+07,
2460245.500000000, A.D. 2023-Oct-28 00:00:00.0000, -5.866255817690393E+07, -3.423640480142908E+08, 5.217040830002494E+07,
2460252.500000000, A.D. 2023-Nov-04 00:00:00.0000, -4.653755972651484E+07, -3.414606275907863E+08, 5.371942889447516E+07,
2460259.500000000, A.D. 2023-Nov-11 00:00:00.0000, -3.435940798654979E+07, -3.401665802729056E+08, 5.520698181748109E+07,
2460266.500000000, A.D. 2023-Nov-18 00:00:00.0000, -2.214119358483563E+07, -3.384750612934788E+08, 5.663001367186511E+07,
2460273.500000000, A.D. 2023-Nov-25 00:00:00.0000, -9.896640288830498E+06, -3.363795971131228E+08, 5.798544746379285E+07,
2460280.500000000, A.D. 2023-Dec-02 00:00:00.0000, 2.359890315354174E+06, -3.338741353030421E+08, 5.927019075799391E+07,
2460287.500000000, A.D. 2023-Dec-09 00:00:00.0000, 1.461339773895639E+07, -3.309530973759546E+08, 6.048114479940589E+07,
2460294.500000000, A.D. 2023-Dec-16 00:00:00.0000, 2.684824586776567E+07, -3.276114343930902E+08, 6.161521461584486E+07,
2460301.500000000, A.D. 2023-Dec-23 00:00:00.0000, 3.904817144341601E+07, -3.238446844353424E+08, 6.266932015656848E+07,
2460308.500000000, A.D. 2023-Dec-30 00:00:00.0000, 5.119629691207248E+07, -3.196490305920930E+08, 6.364040869404534E+07,
2460315.500000000, A.D. 2024-Jan-06 00:00:00.0000, 6.327514637263071E+07, -3.150213614508216E+08, 6.452546846228221E+07,
2460322.500000000, A.D. 2024-Jan-13 00:00:00.0000, 7.526666829357858E+07, -3.099593354335257E+08, 6.532154308038569E+07,
2460329.500000000, A.D. 2024-Jan-20 00:00:00.0000, 8.715226669600867E+07, -3.044614453498423E+08, 6.602574687131792E+07,
2460336.500000000, A.D. 2024-Jan-27 00:00:00.0000, 9.891283920927665E+07, -2.985270818784011E+08, 6.663528126450688E+07,
2460343.500000000, A.D. 2024-Feb-03 00:00:00.0000, 1.105288219524640E+08, -2.921565961954480E+08, 6.714745216929746E+07,
2460350.500000000, A.D. 2024-Feb-10 00:00:00.0000, 1.219802418298320E+08, -2.853513612220590E+08, 6.755968816950460E+07,
2460357.500000000, A.D. 2024-Feb-17 00:00:00.0000, 1.332467765997995E+08, -2.781138305776216E+08, 6.786955939923052E+07,
2460364.500000000, A.D. 2024-Feb-24 00:00:00.0000, 1.443078228642578E+08, -2.704475942437997E+08, 6.807479694109768E+07,
2460371.500000000, A.D. 2024-Mar-02 00:00:00.0000, 1.551425719897416E+08, -2.623574299256249E+08, 6.817331255480316E+07,
2460378.500000000, A.D. 2024-Mar-09 00:00:00.0000, 1.657300939351491E+08, -2.538493490794068E+08, 6.816321850240374E+07,
2460385.500000000, A.D. 2024-Mar-16 00:00:00.0000, 1.760494290527675E+08, -2.449306362917723E+08, 6.804284720678683E+07,
2460392.500000000, A.D. 2024-Mar-23 00:00:00.0000, 1.860796872512524E+08, -2.356098797793356E+08, 6.781077057204579E+07,
2460399.500000000, A.D. 2024-Mar-30 00:00:00.0000, 1.958001515868445E+08, -2.258969919357075E+08, 6.746581887206504E+07,
2460406.500000000, A.D. 2024-Apr-06 00:00:00.0000, 2.051903856632083E+08, -2.158032222474644E+08, 6.700709859504586E+07,
2460413.500000000, A.D. 2024-Apr-13 00:00:00.0000, 2.142303473360091E+08, -2.053411607947496E+08, 6.643400867010163E+07,
2460420.500000000, A.D. 2024-Apr-20 00:00:00.0000, 2.229005065362712E+08, -1.945247288521713E+08, 6.574625507051815E+07,
2460427.500000000, A.D. 2024-Apr-27 00:00:00.0000, 2.311819642904983E+08, -1.833691565120769E+08, 6.494386358155131E+07,
2460434.500000000, A.D. 2024-May-04 00:00:00.0000, 2.390565714737295E+08, -1.718909475880578E+08, 6.402719037264585E+07,
2460441.500000000, A.D. 2024-May-11 00:00:00.0000, 2.465070458704952E+08, -1.601078316765147E+08, 6.299693007034336E+07,
2460448.500000000, A.D. 2024-May-18 00:00:00.0000, 2.535170858906707E+08, -1.480387033776984E+08, 6.185412108520118E+07,
2460455.500000000, A.D. 2024-May-25 00:00:00.0000, 2.600714792016363E+08, -1.357035489722384E+08, 6.060014799186382E+07,
2460462.500000000, A.D. 2024-Jun-01 00:00:00.0000, 2.661562045902694E+08, -1.231233611742644E+08, 5.923674080448936E+07,
2460469.500000000, A.D. 2024-Jun-08 00:00:00.0000, 2.717585256198425E+08, -1.103200428179893E+08, 5.776597103123377E+07,
2460476.500000000, A.D. 2024-Jun-15 00:00:00.0000, 2.768670749206642E+08, -9.731630002276342E+07, 5.619024448783520E+07,
2460483.500000000, A.D. 2024-Jun-22 00:00:00.0000, 2.814719267234378E+08, -8.413552499527267E+07, 5.451229110232501E+07,
2460490.500000000, A.D. 2024-Jun-29 00:00:00.0000, 2.855646543356574E+08, -7.080167184086734E+07, 5.273515186634697E+07,
2460497.500000000, A.D. 2024-Jul-06 00:00:00.0000, 2.891383742636014E+08, -5.733912957034373E+07, 5.086216265614672E+07,
2460504.500000000, A.D. 2024-Jul-13 00:00:00.0000, 2.921877782620164E+08, -4.377259130790689E+07, 4.889693520300140E+07,
2460511.500000000, A.D. 2024-Jul-20 00:00:00.0000, 2.947091509583258E+08, -3.012692045385887E+07, 4.684333577391787E+07,
2460518.500000000, A.D. 2024-Jul-27 00:00:00.0000, 2.967003723303790E+08, -1.642701668328147E+07, 4.470546187511502E+07,
2460525.500000000, A.D. 2024-Aug-03 00:00:00.0000, 2.981609055432283E+08, -2.697684041161127E+06, 4.248761728840844E+07,
2460532.500000000, A.D. 2024-Aug-10 00:00:00.0000, 2.990917708278319E+08, 1.103649706391091E+07, 4.019428581520022E+07,
2460539.500000000, A.D. 2024-Aug-17 00:00:00.0000, 2.994955062280045E+08, 2.475129232545912E+07, 3.783010412914921E+07,
2460546.500000000, A.D. 2024-Aug-24 00:00:00.0000, 2.993761162534524E+08, 3.842292895164837E+07, 3.539983413894634E+07,
2460553.500000000, A.D. 2024-Aug-31 00:00:00.0000, 2.987390097582338E+08, 5.202820267651241E+07, 3.290833524252040E+07,
2460560.500000000, A.D. 2024-Sep-07 00:00:00.0000, 2.975909287620613E+08, 6.554457543340397E+07, 3.036053682614853E+07,
2460567.500000000, A.D. 2024-Sep-14 00:00:00.0000, 2.959398697476915E+08, 7.895026386492425E+07, 2.776141142899316E+07,
2460574.500000000, A.D. 2024-Sep-21 00:00:00.0000, 2.937949969184993E+08, 9.222431851529978E+07, 2.511594910888965E+07,
2460581.500000000, A.D. 2024-Sep-28 00:00:00.0000, 2.911665484772524E+08, 1.053466901453769E+08, 2.242913306897354E+07,
2460588.500000000, A.D. 2024-Oct-05 00:00:00.0000, 2.880657411097861E+08, 1.182982830554889E+08, 1.970591643769193E+07,
2460595.500000000, A.D. 2024-Oct-12 00:00:00.0000, 2.845046737558174E+08, 1.310609984947525E+08, 1.695120066123668E+07,
2460602.500000000, A.D. 2024-Oct-19 00:00:00.0000, 2.804962302737595E+08, 1.436177681755396E+08, 1.416981578603572E+07,
2460609.500000000, A.D. 2024-Oct-26 00:00:00.0000, 2.760539822136143E+08, 1.559525775434722E+08, 1.136650266471350E+07,
2460616.500000000, A.D. 2024-Nov-02 00:00:00.0000, 2.711920930718561E+08, 1.680504792432733E+08, 8.545897105152741E+06,
2460623.500000000, A.D. 2024-Nov-09 00:00:00.0000, 2.659252251037404E+08, 1.798975974995428E+08, 5.712515973897137E+06,
2460630.500000000, A.D. 2024-Nov-16 00:00:00.0000, 2.602684495570716E+08, 1.914811241909068E+08, 2.870745236281738E+06,
2460637.500000000, A.D. 2024-Nov-23 00:00:00.0000, 2.542371610705938E+08, 2.027893073961998E+08, 2.482987930715084E+04,
2460644.500000000, A.D. 2024-Nov-30 00:00:00.0000, 2.478469970010899E+08, 2.138114332231440E+08, -2.821134377288625E+06,
2460651.500000000, A.D. 2024-Dec-07 00:00:00.0000, 2.411137625193166E+08, 2.245378021942672E+08, -5.663207679790303E+06,
2460658.500000000, A.D. 2024-Dec-14 00:00:00.0000, 2.340533610737019E+08, 2.349597022457811E+08, -8.497610896585539E+06,
2460665.500000000, A.D. 2024-Dec-21 00:00:00.0000, 2.266817280649112E+08, 2.450693779041401E+08, -1.132072874050267E+07,
2460672.500000000, A.D. 2024-Dec-28 00:00:00.0000, 2.190147697745866E+08, 2.548599934472961E+08, -1.412911170814411E+07,
2460679.500000000, A.D. 2025-Jan-04 00:00:00.0000, 2.110683101276535E+08, 2.643255931363385E+08, -1.691947701260184E+07,
2460686.500000000, A.D. 2025-Jan-11 00:00:00.0000, 2.028580433560347E+08, 2.734610608264687E+08, -1.968870833694139E+07,
2460693.500000000, A.D. 2025-Jan-18 00:00:00.0000, 1.943994914719530E+08, 2.822620786400557E+08, -2.243385452537152E+07,
2460700.500000000, A.D. 2025-Jan-25 00:00:00.0000, 1.857079665776618E+08, 2.907250847764702E+08, -2.515212739581652E+07,
2460707.500000000, A.D. 2025-Feb-01 00:00:00.0000, 1.767985379547635E+08, 2.988472309170772E+08, -2.784089881284358E+07,
2460714.500000000, A.D. 2025-Feb-08 00:00:00.0000, 1.676860037207775E+08, 3.066263396671681E+08, -3.049769713863914E+07,
$$EOE